[{"OBJECT_NAME":"ETRSS-1","OBJECT_ID":"2019-093B","EPOCH":"2026-03-09T22:36:35.084736","MEAN_MOTION":14.95232474,"ECCENTRICITY":0.00120616,"INCLINATION":97.7844,"RA_OF_ASC_NODE":153.9141,"ARG_OF_PERICENTER":31.3849,"MEAN_ANOMALY":328.8089,"EPHEMERIS_TYPE":0,"CLASSIFICATION_TYPE":"U","NORAD_CAT_ID":44880,"ELEMENT_SET_NO":999,"REV_AT_EPOCH":33722,"BSTAR":0.00018246379,"MEAN_MOTION_DOT":1.951e-5,"MEAN_MOTION_DDOT":0},{"OBJECT_NAME":"STARLINK-5623","OBJECT_ID":"2023-014Q","EPOCH":"2026-03-09T22:49:44.915520","MEAN_MOTION":14.98331029,"ECCENTRICITY":0.00031573,"INCLINATION":69.9995,"RA_OF_ASC_NODE":63.8374,"ARG_OF_PERICENTER":269.5921,"MEAN_ANOMALY":90.4876,"EPHEMERIS_TYPE":0,"CLASSIFICATION_TYPE":"U","NORAD_CAT_ID":55405,"ELEMENT_SET_NO":999,"REV_AT_EPOCH":17209,"BSTAR":3.3868751e-5,"MEAN_MOTION_DOT":3.11e-6,"MEAN_MOTION_DDOT":0}]
